{
  "locations": {
    "H1": { "id":"H1", "name_en":"JTI at Gloucester Road eastbound near Revenue Tower", "name_tc":"告士打道東行近稅務大樓的行車時間顯示器", "east":"835776.133E", "north":"815604.834N", "lat":"22.279311622", "long":"114.172101664" },
    "H2": { "id":"H2", "name_en":"JTI at Canal Road Flyover northbound near exit of Aberdeen Tunnel", "name_tc":"堅拿道天橋北行近香港仔隧道出口的行車時間顯示器", "east":"836609.240E", "north":"814749.535N", "lat":"22.271587756", "long":"114.180185283" },
    "H3": { "id":"H3", "name_en":"JTI at Island Eastern Corridor westbound near City Garden", "name_tc":"東區走廊西行近城市花園的行車時間顯示器", "east":"838019.353E", "north":"817012.047N", "lat":"22.292018819", "long":"114.193869616" },
    "H4": { "id":"H4", "name_en":"JTI at Wong Nai Chung Road northbound near Queen's Road East", "name_tc":"黃泥涌道北行近皇后大道東的行車時間顯示器", "east":"836536.545E", "north":"815107.453N", "lat":"22.274820000", "long":"114.179480009" },
    "H5": { "id":"H5", "name_en":"JTI at Hing Fat Street northbound near Victoria Park", "name_tc":"興發街北行近維多利亞公園的行車時間顯示器", "east":"837741.253E", "north":"816027.722N", "lat":"22.283130005", "long":"114.191170005" },
    "H6": { "id":"H6", "name_en":"JTI at Repulse Bay Road northbound near Island Road", "name_tc":"淺水灣道北行近香島道的行車時間顯示器", "east":"837703.596E", "north":"810895.203N", "lat":"22.236780002", "long":"114.190800000" },
    "H7": { "id":"H7", "name_en":"JTI at Wong Chuk Hang Road northbound near the Hong Kong Country Club", "name_tc":"黃竹坑道北行近香港鄉村俱樂部的行車時間顯示器", "east":"836427.333E", "north":"811891.740N", "lat":"22.245780003", "long":"114.178420008" },
    "H8": { "id":"H8", "name_en":"JTI at Wong Chuk Hang Road eastbound near Aberdeen Sports Ground", "name_tc":"黃竹坑道東行近香港仔運動場的行車時間顯示器", "east":"835670.721E", "north":"812414.414N", "lat":"22.250500007", "long":"114.171080006" },
    "H9": { "id":"H9", "name_en":"JTI at Ap Lei Chau Bridge Road northbound near Wong Chuk Hang Road", "name_tc":"鴨脷洲橋道北行近黃竹坑道的行車時間顯示器", "east":"834546.066E", "north":"811930.591N", "lat":"22.246130008", "long":"114.160170004" },
    "H11": { "id":"H11", "name_en":"JTI at Island Eastern Corridor westbound near Lei King Wan", "name_tc":"東區走廊西行近鯉景灣的行車時間顯示器", "east":"840851.058E", "north":"816261.521N", "lat":"22.285235888", "long":"114.221346549" },
    "K01": { "id":"K01", "name_en":"JTI at Ferry Street southbound near Charming Garden", "name_tc":"渡船街南行近富榮花園的行車時間顯示器", "east":"835228.606E", "north":"819561.765N", "lat":"22.315044916", "long":"114.166786346" },
    "K02": { "id":"K02", "name_en":"JTI at Gascoigne Road eastbound near the Hong Kong Polytechnic University", "name_tc":"加士居道東行近香港理工大學的行車時間顯示器", "east":"836432.903E", "north":"818548.685N", "lat":"22.305896494", "long":"114.178474746" },
    "K03": { "id":"K03", "name_en":"JTI at Waterloo Road southbound near Kowloon Hospital", "name_tc":"窩打老道南行近九龍醫院的行車時間顯示器", "east":"836422.941E", "north":"820573.545N", "lat":"22.324182195", "long":"114.178378266" },
    "K04": { "id":"K04", "name_en":"JTI at Princess Margaret Road southbound near Oi Man Estate", "name_tc":"公主道南行近愛民邨的行車時間顯示器", "east":"836273.929E", "north":"819369.685N", "lat":"22.313310630", "long":"114.176931903" },
    "K05": { "id":"K05", "name_en":"JTI at Kai Fuk Road northbound near the petrol stations", "name_tc":"啟福道北行近油站的行車時間顯示器", "east":"839344.209E", "north":"820099.964N", "lat":"22.319902728", "long":"114.206732056" },
    "K06": { "id":"K06", "name_en":"JTI at Chatham Road North southbound near Fat Kwong Street Playground", "name_tc":"漆咸道北南行近佛光街遊樂場的行車時間顯示器", "east":"837010.873E", "north":"818912.021N", "lat":"22.309177485", "long":"114.184084134" },
    "N01": { "id":"N01", "name_en":"JTI at Hung Tin Road southbound near junction with Hung Chi Road", "name_tc":"洪天路南行近洪志路的行車時間顯示器", "east":"818134.986E", "north":"832916.549N", "lat":"22.435550007", "long":"114.000730010" },
    "N02": { "id":"N02", "name_en":"JTI at Long Tin Road southbound near Parkside Villa", "name_tc":"朗天路南行近柏麗豪園的行車時間顯示器", "east":"819721.942E", "north":"833461.808N", "lat":"22.440490004", "long":"114.016140006" },
    "N03": { "id":"N03", "name_en":"JTI at Yuen Long Highway eastbound near Shap Pat Heung Interchange", "name_tc":"元朗公路東行近十八鄉交匯處的行車時間顯示器", "east":"821243.332E", "north":"832752.660N", "lat":"22.434100124", "long":"114.030925995" },
    "N05": { "id":"N05", "name_en":"JTI at Tai Po Road eastbound near Kwong Fuk Estate", "name_tc":"大埔公路東行近廣福邨的行車時間顯示器", "east":"836052.412E", "north":"834087.473N", "lat":"22.446220004", "long":"114.174780009" },
    "N06": { "id":"N06", "name_en":"JTI at Tsing Sha Highway westbound near Shing Mun River Channel", "name_tc":"青沙公路西行近城門河道的行車時間顯示器", "east":"836379.806E", "north":"826412.364N", "lat":"22.376910003", "long":"114.177960009" },
    "N07": { "id":"N07", "name_en":"JTI at Fuk Man Road northbound near Po Tung Road", "name_tc":"福民路北行近普通道的行車時間顯示器", "east":"846002.470E", "north":"827145.634N", "lat":"22.383504183", "long":"114.271400043" },
    "N08": { "id":"N08", "name_en":"JTI at Po Shun Road southbound near Chung Ming Court", "name_tc":"寶順路南行近頌明苑的行車時間顯示器", "east":"845106.275E", "north":"820007.355N", "lat":"22.319046456", "long":"114.262658145" },
    "N09": { "id":"N09", "name_en":"JTI at Wan Po Road westbound near Hong Kong Velodrome", "name_tc":"環保大道西行近香港單車館的行車時間顯示器", "east":"845108.839E", "north":"819459.612N", "lat":"22.314100001", "long":"114.262680006" },
    "N10": { "id":"N10", "name_en":"JTI at Po Hong Road southbound near KMB Tseung Kwan O Depot", "name_tc":"寶康路南行近九巴將軍澳車廠的行車時間顯示器", "east":"844624.463E", "north":"819680.814N", "lat":"22.316100007", "long":"114.257980005" },
    "N11": { "id":"N11", "name_en":"JTI at Po Yap Road westbound near Tiu Keng Leng Sports Centre", "name_tc":"寶邑路西行近調景嶺體育館的行車時間顯示器", "east":"844502.454E", "north":"818550.148N", "lat":"22.305890008", "long":"114.256790004" },
    "N12": { "id":"N12", "name_en":"JTI at Po Shun Road southbound near Tiu Keng Leng Sports Centre", "name_tc":"寶順路南行近調景嶺體育館的行車時間顯示器", "east":"844404.517E", "north":"818645.328N", "lat":"22.306750006", "long":"114.255840006" },
    "N13": { "id":"N13", "name_en":"JTI at Chui Ling Road eastbound near Tiu Keng Leng Sports Centre", "name_tc":"翠嶺路東行近調景嶺體育館的行車時間顯示器", "east":"844315.973E", "north":"818511.293N", "lat":"22.305540006", "long":"114.254980006" },
    "SJ1": { "id":"SJ1", "name_en":"JTI at Tai Po Road southbound near Sha Tin Racecourse", "name_tc":"大埔公路南行近沙田馬場的行車時間顯示器", "east":"839405.760E", "north":"829500.770N", "lat":"22.404797024", "long":"114.207347960" },
    "SJ2": { "id":"SJ2", "name_en":"JTI at Tate's Cairn Highway southbound near Shek Mun", "name_tc":"大老山隧道公路南行近石門的行車時間顯示器", "east":"839740.360E", "north":"827835.460N", "lat":"22.389757785", "long":"114.210593926" },
    "SJ3": { "id":"SJ3", "name_en":"JTI at Tolo Highway southbound near the Science Park", "name_tc":"吐露港公路南行近科學園的行車時間顯示器", "east":"839366.620E", "north":"831956.750N", "lat":"22.426975789", "long":"114.206972621" },
    "SJ4": { "id":"SJ4", "name_en":"JTI at San Tin Highway southbound near Fairview Park", "name_tc":"新田公路南行近錦綉花園的行車時間顯示器", "east":"823591.610E", "north":"836073.400N", "lat":"22.464106829", "long":"114.053710459" },
    "SJ5": { "id":"SJ5", "name_en":"JTI at Tuen Mun Road southbound near Tseng Choi Street", "name_tc":"屯門公路南行近井財街的行車時間顯示器", "east":"815710.370E", "north":"829102.020N", "lat":"22.401075772", "long":"113.977226590" }
  },
  "destinations": {
    "CH": { "id":"CH", "name_en":"Cross Harbour Tunnel", "name_tc":"紅磡海底隧道" },
    "EH": { "id":"EH", "name_en":"Eastern Harbour Crossing", "name_tc":"東區海底隧道" },
    "WH": { "id":"WH", "name_en":"Western Harbour Crossing", "name_tc":"西區海底隧道" },
    "ABT": { "id":"ABT", "name_en":"Wan Chai via Aberdeen Tunnel", "name_tc":"灣仔經香港仔隧道" },
    "WNCG": { "id":"WNCG", "name_en":"Wan Chai via Wong Nai Chung Gap Road", "name_tc":"灣仔經黃泥涌峽道" },
    "PFL": { "id":"PFL", "name_en":"Central via Pok Fu Lam Road", "name_tc":"中區經薄扶林道" },
    "TMCLK": { "id":"TMCLK", "name_en":"Airport via Tuen Mun Chek Lap Kok Tunnel", "name_tc":"機場經屯門赤鱲角隧道" },
    "ATL": { "id":"ATL", "name_en":"Airport via Tai Lam Tunnel", "name_tc":"機場經大欖隧道" },
    "SSCPR": { "id":"SSCPR", "name_en":"Sheung Shui via Castle Peak Road", "name_tc":"上水經青山公路" },
    "SSYLH": { "id":"SSYLH", "name_en":"Sheung Shui via Route 9", "name_tc":"上水經九號幹線" },
    "LRT": { "id":"LRT", "name_en":"Kowloon (C) via Lion Rock Tunnel", "name_tc":"九龍(中)經獅子山隧道" },
    "SMT": { "id":"SMT", "name_en":"Tsuen Wan via Shing Mun Tunnel", "name_tc":"荃灣經城門隧道" },
    "TCT": { "id":"TCT", "name_en":"Kowloon (E) via Tate's Cairn Tunnel", "name_tc":"九龍(東)經大老山隧道" },
    "TKTL": { "id":"TKTL", "name_en":"Ting Kau via Tai Lam Tunnel", "name_tc":"汀九經大欖隧道" },
    "TKTM": { "id":"TKTM", "name_en":"Ting Kau via Tuen Mun Road", "name_tc":"汀九經屯門公路" },
    "TLH": { "id":"TLH", "name_en":"Shatin via Tolo Highway", "name_tc":"沙田經吐露港公路" },
    "TPR": { "id":"TPR", "name_en":"Shatin via Tai Po Road", "name_tc":"沙田經大埔公路" },
    "KTPR": { "id":"KTPR", "name_en":"Kowloon via Tai Po Road", "name_tc":"九龍經大埔公路" },
    "TSCA": { "id":"TSCA", "name_en":"Kowloon (W) via Route 8", "name_tc":"九龍(西)經八號幹線" },
    "TWCP": { "id":"TWCP", "name_en":"Tsuen Wan (W) via Castle Peak", "name_tc":"荃灣(西)經青山公路" },
    "TWTM": { "id":"TWTM", "name_en":"Tsuen Wan (W) via Tuen Mun", "name_tc":"荃灣(西)經屯門公路" },
    "CWBR": { "id":"CWBR", "name_en":"Kowloon via Clear Water Bay Road", "name_tc":"九龍經清水灣道" },
    "MOS": { "id":"MOS", "name_en":"Kowloon via Route 2", "name_tc":"九龍經二號幹線" },
    "TKOLTT": { "id":"TKOLTT", "name_en":"Kowloon via Tseung Kwan O Lam Tin Tunnel", "name_tc":"九龍經將軍澳藍田隧道" },
    "TKOT": { "id":"TKOT", "name_en":"Kowloon via Tseung Kwan O Tunnel", "name_tc":"九龍經將軍澳隧道" } 
  }
}